{
  "type": "FeatureCollection",
  "name": "GVK_Enclave_Road_Masterplan",
  "crs": {
    "type": "name",
    "properties": {
      "name": "urn:ogc:def:crs:OGC:1.3:CRS84"
    }
  },
  "features": [
    {
      "type": "Feature",
      "id": "ROAD_NETWORK_CONTINUOUS_0",
      "geometry": {
        "type": "Polygon",
        "coordinates": [
          [
            [
              76.8997116,
              15.1264303
            ],
            [
              76.8997122,
              15.1264247
            ],
            [
              76.8997139,
              15.1264192
            ],
            [
              76.8997167,
              15.1264142
            ],
            [
              76.8997204,
              15.1264098
            ],
            [
              76.8997248,
              15.1264062
            ],
            [
              76.8997301,
              15.1264035
            ],
            [
              76.8997356,
              15.1264019
            ],
            [
              76.8997414,
              15.1264013
            ],
            [
              76.8997935,
              15.1264013
            ],
            [
              76.8997993,
              15.1264008
            ],
            [
              76.8998049,
              15.1263992
            ],
            [
              76.8998101,
              15.1263964
            ],
            [
              76.8998145,
              15.1263928
            ],
            [
              76.8998183,
              15.1263885
            ],
            [
              76.8998211,
              15.1263834
            ],
            [
              76.8998227,
              15.126378
            ],
            [
              76.8998233,
              15.1263724
            ],
            [
              76.8998233,
              15.1256931
            ],
            [
              76.8998238,
              15.1256881
            ],
            [
              76.8998251,
              15.1256832
            ],
            [
              76.8998273,
              15.1256786
            ],
            [
              76.8998303,
              15.1256745
            ],
            [
              76.899834,
              15.1256709
            ],
            [
              76.8998383,
              15.1256681
            ],
            [
              76.8998429,
              15.1256659
            ],
            [
              76.899848,
              15.1256646
            ],
            [
              76.8998735,
              15.1256603
            ],
            [
              76.8998798,
              15.1256599
            ],
            [
              76.8998859,
              15.1256609
            ],
            [
              76.8998917,
              15.1256631
            ],
            [
              76.8998969,
              15.1256664
            ],
            [
              76.8999012,
              15.1256708
            ],
            [
              76.8999043,
              15.125676
            ],
            [
              76.8999064,
              15.1256817
            ],
            [
              76.899907,
              15.1256877
            ],
            [
              76.899907,
              15.1263724
            ],
            [
              76.8999076,
              15.126378
            ],
            [
              76.8999093,
              15.1263834
            ],
            [
              76.8999121,
              15.1263885
            ],
            [
              76.8999158,
              15.1263928
            ],
            [
              76.8999203,
              15.1263964
            ],
            [
              76.8999255,
              15.1263992
            ],
            [
              76.8999311,
              15.1264008
            ],
            [
              76.8999368,
              15.1264013
            ],
            [
              76.9001006,
              15.1264013
            ],
            [
              76.9001064,
              15.1264008
            ],
            [
              76.900112,
              15.1263992
            ],
            [
              76.9001172,
              15.1263964
            ],
            [
              76.9001216,
              15.1263928
            ],
            [
              76.9001254,
              15.1263885
            ],
            [
              76.9001281,
              15.1263834
            ],
            [
              76.9001298,
              15.126378
            ],
            [
              76.9001304,
              15.1263724
            ],
            [
              76.9001304,
              15.1256416
            ],
            [
              76.9001308,
              15.1256365
            ],
            [
              76.9001321,
              15.1256316
            ],
            [
              76.9001344,
              15.125627
            ],
            [
              76.9001374,
              15.1256228
            ],
            [
              76.9001411,
              15.1256193
            ],
            [
              76.9001454,
              15.1256164
            ],
            [
              76.9001501,
              15.1256143
            ],
            [
              76.9001551,
              15.125613
            ],
            [
              76.9001806,
              15.1256087
            ],
            [
              76.9001869,
              15.1256084
            ],
            [
              76.900193,
              15.1256093
            ],
            [
              76.9001988,
              15.1256115
            ],
            [
              76.900204,
              15.1256149
            ],
            [
              76.9002083,
              15.1256192
            ],
            [
              76.9002114,
              15.1256245
            ],
            [
              76.9002135,
              15.1256302
            ],
            [
              76.9002141,
              15.1256361
            ],
            [
              76.9002141,
              15.1263724
            ],
            [
              76.9002147,
              15.126378
            ],
            [
              76.9002164,
              15.1263834
            ],
            [
              76.9002191,
              15.1263885
            ],
            [
              76.9002229,
              15.1263928
            ],
            [
              76.9002273,
              15.1263964
            ],
            [
              76.9002325,
              15.1263992
            ],
            [
              76.9002381,
              15.1264008
            ],
            [
              76.9002439,
              15.1264013
            ],
            [
              76.9004188,
              15.1264013
            ],
            [
              76.9004246,
              15.1264008
            ],
            [
              76.9004302,
              15.1263992
            ],
            [
              76.9004354,
              15.1263964
            ],
            [
              76.9004399,
              15.1263928
            ],
            [
              76.9004436,
              15.1263885
            ],
            [
              76.9004464,
              15.1263834
            ],
            [
              76.9004481,
              15.126378
            ],
            [
              76.9004486,
              15.1263724
            ],
            [
              76.9004486,
              15.1255881
            ],
            [
              76.9004491,
              15.1255831
            ],
            [
              76.9004504,
              15.1255782
            ],
            [
              76.9004526,
              15.1255736
            ],
            [
              76.9004556,
              15.1255694
            ],
            [
              76.9004593,
              15.1255659
            ],
            [
              76.9004636,
              15.125563
            ],
            [
              76.9004684,
              15.1255608
            ],
            [
              76.9004734,
              15.1255596
            ],
            [
              76.9005255,
              15.1255509
            ],
            [
              76.9005319,
              15.1255504
            ],
            [
              76.9005383,
              15.1255514
            ],
            [
              76.9005443,
              15.1255537
            ],
            [
              76.9005497,
              15.1255572
            ],
            [
              76.9005541,
              15.1255617
            ],
            [
              76.9005575,
              15.1255672
            ],
            [
              76.9005595,
              15.1255731
            ],
            [
              76.9005603,
              15.1255794
            ],
            [
              76.9005603,
              15.1263724
            ],
            [
              76.9005608,
              15.126378
            ],
            [
              76.9005625,
              15.1263834
            ],
            [
              76.9005653,
              15.1263885
            ],
            [
              76.900569,
              15.1263928
            ],
            [
              76.9005735,
              15.1263964
            ],
            [
              76.9005787,
              15.1263992
            ],
            [
              76.9005843,
              15.1264008
            ],
            [
              76.9005901,
              15.1264013
            ],
            [
              76.9007538,
              15.1264013
            ],
            [
              76.9007596,
              15.1264008
            ],
            [
              76.9007652,
              15.1263992
            ],
            [
              76.9007704,
              15.1263964
            ],
            [
              76.9007749,
              15.1263928
            ],
            [
              76.9007786,
              15.1263885
            ],
            [
              76.9007814,
              15.1263834
            ],
            [
              76.9007831,
              15.126378
            ],
            [
              76.9007836,
              15.1263724
            ],
            [
              76.9007836,
              15.1255318
            ],
            [
              76.9007841,
              15.1255268
            ],
            [
              76.9007854,
              15.1255219
            ],
            [
              76.9007876,
              15.1255173
            ],
            [
              76.9007906,
              15.1255132
            ],
            [
              76.9007943,
              15.1255096
            ],
            [
              76.9007986,
              15.1255068
            ],
            [
              76.9008033,
              15.1255046
            ],
            [
              76.9008083,
              15.1255033
            ],
            [
              76.9008339,
              15.125499
            ],
            [
              76.9008401,
              15.1254986
            ],
            [
              76.9008463,
              15.1254996
            ],
            [
              76.900852,
              15.1255018
            ],
            [
              76.9008572,
              15.1255051
            ],
            [
              76.9008615,
              15.1255095
            ],
            [
              76.9008647,
              15.1255147
            ],
            [
              76.9008667,
              15.1255204
            ],
            [
              76.9008674,
              15.1255264
            ],
            [
              76.9008674,
              15.1263724
            ],
            [
              76.9008679,
              15.126378
            ],
            [
              76.9008696,
              15.1263834
            ],
            [
              76.9008724,
              15.1263885
            ],
            [
              76.9008761,
              15.1263928
            ],
            [
              76.9008806,
              15.1263964
            ],
            [
              76.9008858,
              15.1263992
            ],
            [
              76.9008914,
              15.1264008
            ],
            [
              76.9008972,
              15.1264013
            ],
            [
              76.9010609,
              15.1264013
            ],
            [
              76.9010667,
              15.1264008
            ],
            [
              76.9010723,
              15.1263992
            ],
            [
              76.9010775,
              15.1263964
            ],
            [
              76.901082,
              15.1263928
            ],
            [
              76.9010857,
              15.1263885
            ],
            [
              76.9010885,
              15.1263834
            ],
            [
              76.9010901,
              15.126378
            ],
            [
              76.9010907,
              15.1263724
            ],
            [
              76.9010907,
              15.1254803
            ],
            [
              76.9010912,
              15.1254752
            ],
            [
              76.9010925,
              15.1254703
            ],
            [
              76.9010947,
              15.1254657
            ],
            [
              76.9010977,
              15.1254615
            ],
            [
              76.9011014,
              15.125458
            ],
            [
              76.9011057,
              15.1254551
            ],
            [
              76.9011104,
              15.125453
            ],
            [
              76.9011155,
              15.1254517
            ],
            [
              76.901141,
              15.1254474
            ],
            [
              76.9011472,
              15.1254471
            ],
            [
              76.9011533,
              15.125448
            ],
            [
              76.9011591,
              15.1254502
            ],
            [
              76.9011643,
              15.1254536
            ],
            [
              76.9011686,
              15.1254579
            ],
            [
              76.9011718,
              15.1254632
            ],
            [
              76.9011738,
              15.1254689
            ],
            [
              76.9011745,
              15.1254748
            ],
            [
              76.9011745,
              15.1263724
            ],
            [
              76.901175,
              15.126378
            ],
            [
              76.9011767,
              15.1263834
            ],
            [
              76.9011795,
              15.1263885
            ],
            [
              76.9011832,
              15.1263928
            ],
            [
              76.9011877,
              15.1263964
            ],
            [
              76.9011929,
              15.1263992
            ],
            [
              76.9011985,
              15.1264008
            ],
            [
              76.9012042,
              15.1264013
            ],
            [
              76.901368,
              15.1264013
            ],
            [
              76.9013738,
              15.1264008
            ],
            [
              76.9013794,
              15.1263992
            ],
            [
              76.9013846,
              15.1263964
            ],
            [
              76.901389,
              15.1263928
            ],
            [
              76.9013928,
              15.1263885
            ],
            [
              76.9013956,
              15.1263834
            ],
            [
              76.9013972,
              15.126378
            ],
            [
              76.9013978,
              15.1263724
            ],
            [
              76.9013978,
              15.1254286
            ],
            [
              76.9013983,
              15.1254237
            ],
            [
              76.9013996,
              15.1254188
            ],
            [
              76.9014018,
              15.1254142
            ],
            [
              76.9014048,
              15.12541
            ],
            [
              76.9014085,
              15.1254065
            ],
            [
              76.9014128,
              15.1254036
            ],
            [
              76.9014174,
              15.1254014
            ],
            [
              76.9014224,
              15.1254002
            ],
            [
              76.901448,
              15.1253958
            ],
            [
              76.9014543,
              15.1253955
            ],
            [
              76.9014604,
              15.1253964
            ],
            [
              76.9014662,
              15.1253986
            ],
            [
              76.9014714,
              15.125402
            ],
            [
              76.9014757,
              15.1254063
            ],
            [
              76.9014788,
              15.1254115
            ],
            [
              76.9014809,
              15.1254172
            ],
            [
              76.9014815,
              15.1254232
            ],
            [
              76.9014815,
              15.1263724
            ],
            [
              76.9014821,
              15.126378
            ],
            [
              76.9014838,
              15.1263834
            ],
            [
              76.9014866,
              15.1263885
            ],
            [
              76.9014903,
              15.1263928
            ],
            [
              76.9014948,
              15.1263964
            ],
            [
              76.9015,
              15.1263992
            ],
            [
              76.9015055,
              15.1264008
            ],
            [
              76.9015113,
              15.1264013
            ],
            [
              76.9016837,
              15.1264013
            ],
            [
              76.9016895,
              15.1264019
            ],
            [
              76.9016951,
              15.1264035
            ],
            [
              76.9017003,
              15.1264062
            ],
            [
              76.9017048,
              15.1264098
            ],
            [
              76.9017085,
              15.1264142
            ],
            [
              76.9017113,
              15.1264192
            ],
            [
              76.901713,
              15.1264247
            ],
            [
              76.9017135,
              15.1264303
            ],
            [
              76.9017135,
              15.1264813
            ],
            [
              76.901713,
              15.1264869
            ],
            [
              76.9017113,
              15.1264923
            ],
            [
              76.9017085,
              15.1264973
            ],
            [
              76.9017048,
              15.1265017
            ],
            [
              76.9017003,
              15.1265053
            ],
            [
              76.9016951,
              15.126508
            ],
            [
              76.9016895,
              15.1265096
            ],
            [
              76.9016837,
              15.1265102
            ],
            [
              76.9015113,
              15.1265102
            ],
            [
              76.9015055,
              15.1265107
            ],
            [
              76.9015,
              15.1265124
            ],
            [
              76.9014948,
              15.1265151
            ],
            [
              76.9014903,
              15.1265187
            ],
            [
              76.9014866,
              15.126523
            ],
            [
              76.9014838,
              15.1265281
            ],
            [
              76.9014821,
              15.1265335
            ],
            [
              76.9014815,
              15.1265391
            ],
            [
              76.9014815,
              15.1281684
            ],
            [
              76.901481,
              15.128174
            ],
            [
              76.9014793,
              15.1281794
            ],
            [
              76.9014765,
              15.1281845
            ],
            [
              76.9014728,
              15.1281889
            ],
            [
              76.9014683,
              15.1281925
            ],
            [
              76.9014631,
              15.1281952
            ],
            [
              76.9014575,
              15.1281968
            ],
            [
              76.9014518,
              15.1281973
            ],
            [
              76.9004784,
              15.1281973
            ],
            [
              76.9004726,
              15.1281968
            ],
            [
              76.900467,
              15.1281952
            ],
            [
              76.9004618,
              15.1281925
            ],
            [
              76.9004574,
              15.1281889
            ],
            [
              76.9004536,
              15.1281845
            ],
            [
              76.9004509,
              15.1281794
            ],
            [
              76.9004492,
              15.128174
            ],
            [
              76.9004486,
              15.1281684
            ],
            [
              76.9004486,
              15.1265391
            ],
            [
              76.9004481,
              15.1265335
            ],
            [
              76.9004464,
              15.1265281
            ],
            [
              76.9004436,
              15.126523
            ],
            [
              76.9004399,
              15.1265187
            ],
            [
              76.9004354,
              15.1265151
            ],
            [
              76.9004302,
              15.1265124
            ],
            [
              76.9004246,
              15.1265107
            ],
            [
              76.9004188,
              15.1265102
            ],
            [
              76.9002439,
              15.1265102
            ],
            [
              76.9002381,
              15.1265107
            ],
            [
              76.9002325,
              15.1265124
            ],
            [
              76.9002273,
              15.1265151
            ],
            [
              76.9002229,
              15.1265187
            ],
            [
              76.9002191,
              15.126523
            ],
            [
              76.9002164,
              15.1265281
            ],
            [
              76.9002147,
              15.1265335
            ],
            [
              76.9002141,
              15.1265391
            ],
            [
              76.9002141,
              15.1278068
            ],
            [
              76.9002136,
              15.1278124
            ],
            [
              76.9002119,
              15.1278178
            ],
            [
              76.9002091,
              15.1278228
            ],
            [
              76.9002054,
              15.1278272
            ],
            [
              76.9002009,
              15.1278308
            ],
            [
              76.9001957,
              15.1278335
            ],
            [
              76.9001901,
              15.1278351
            ],
            [
              76.9001843,
              15.1278357
            ],
            [
              76.9001602,
              15.1278357
            ],
            [
              76.9001544,
              15.1278351
            ],
            [
              76.9001488,
              15.1278335
            ],
            [
              76.9001436,
              15.1278308
            ],
            [
              76.9001391,
              15.1278272
            ],
            [
              76.9001354,
              15.1278228
            ],
            [
              76.9001326,
              15.1278178
            ],
            [
              76.9001309,
              15.1278124
            ],
            [
              76.9001304,
              15.1278068
            ],
            [
              76.9001304,
              15.1265391
            ],
            [
              76.9001298,
              15.1265335
            ],
            [
              76.9001281,
              15.1265281
            ],
            [
              76.9001254,
              15.126523
            ],
            [
              76.9001216,
              15.1265187
            ],
            [
              76.9001172,
              15.1265151
            ],
            [
              76.900112,
              15.1265124
            ],
            [
              76.9001064,
              15.1265107
            ],
            [
              76.9001006,
              15.1265102
            ],
            [
              76.8999368,
              15.1265102
            ],
            [
              76.8999311,
              15.1265107
            ],
            [
              76.8999255,
              15.1265124
            ],
            [
              76.8999203,
              15.1265151
            ],
            [
              76.8999158,
              15.1265187
            ],
            [
              76.8999121,
              15.126523
            ],
            [
              76.8999093,
              15.1265281
            ],
            [
              76.8999076,
              15.1265335
            ],
            [
              76.899907,
              15.1265391
            ],
            [
              76.899907,
              15.1278068
            ],
            [
              76.8999065,
              15.1278124
            ],
            [
              76.8999048,
              15.1278178
            ],
            [
              76.899902,
              15.1278228
            ],
            [
              76.8998983,
              15.1278272
            ],
            [
              76.8998938,
              15.1278308
            ],
            [
              76.8998886,
              15.1278335
            ],
            [
              76.899883,
              15.1278351
            ],
            [
              76.8998773,
              15.1278357
            ],
            [
              76.8998531,
              15.1278357
            ],
            [
              76.8998473,
              15.1278351
            ],
            [
              76.8998417,
              15.1278335
            ],
            [
              76.8998365,
              15.1278308
            ],
            [
              76.899832,
              15.1278272
            ],
            [
              76.8998283,
              15.1278228
            ],
            [
              76.8998255,
              15.1278178
            ],
            [
              76.8998239,
              15.1278124
            ],
            [
              76.8998233,
              15.1278068
            ],
            [
              76.8998233,
              15.1265391
            ],
            [
              76.8998227,
              15.1265335
            ],
            [
              76.8998211,
              15.1265281
            ],
            [
              76.8998183,
              15.126523
            ],
            [
              76.8998145,
              15.1265187
            ],
            [
              76.8998101,
              15.1265151
            ],
            [
              76.8998049,
              15.1265124
            ],
            [
              76.8997993,
              15.1265107
            ],
            [
              76.8997935,
              15.1265102
            ],
            [
              76.8997414,
              15.1265102
            ],
            [
              76.8997356,
              15.1265096
            ],
            [
              76.8997301,
              15.126508
            ],
            [
              76.8997248,
              15.1265053
            ],
            [
              76.8997204,
              15.1265017
            ],
            [
              76.8997167,
              15.1264973
            ],
            [
              76.8997139,
              15.1264923
            ],
            [
              76.8997122,
              15.1264869
            ],
            [
              76.8997116,
              15.1264813
            ],
            [
              76.8997116,
              15.1264303
            ]
          ],
          [
            [
              76.9005901,
              15.1265102
            ],
            [
              76.9005843,
              15.1265107
            ],
            [
              76.9005787,
              15.1265124
            ],
            [
              76.9005735,
              15.1265151
            ],
            [
              76.900569,
              15.1265187
            ],
            [
              76.9005653,
              15.126523
            ],
            [
              76.9005625,
              15.1265281
            ],
            [
              76.9005608,
              15.1265335
            ],
            [
              76.9005603,
              15.1265391
            ],
            [
              76.9005603,
              15.128087
            ],
            [
              76.9005608,
              15.1280926
            ],
            [
              76.9005625,
              15.1280981
            ],
            [
              76.9005653,
              15.1281031
            ],
            [
              76.900569,
              15.1281075
            ],
            [
              76.9005735,
              15.1281111
            ],
            [
              76.9005787,
              15.1281138
            ],
            [
              76.9005843,
              15.1281154
            ],
            [
              76.9005901,
              15.128116
            ],
            [
              76.9007538,
              15.128116
            ],
            [
              76.9007596,
              15.1281154
            ],
            [
              76.9007652,
              15.1281138
            ],
            [
              76.9007704,
              15.1281111
            ],
            [
              76.9007749,
              15.1281075
            ],
            [
              76.9007786,
              15.1281031
            ],
            [
              76.9007814,
              15.1280981
            ],
            [
              76.9007831,
              15.1280926
            ],
            [
              76.9007836,
              15.128087
            ],
            [
              76.9007836,
              15.1265391
            ],
            [
              76.9007831,
              15.1265335
            ],
            [
              76.9007814,
              15.1265281
            ],
            [
              76.9007786,
              15.126523
            ],
            [
              76.9007749,
              15.1265187
            ],
            [
              76.9007704,
              15.1265151
            ],
            [
              76.9007652,
              15.1265124
            ],
            [
              76.9007596,
              15.1265107
            ],
            [
              76.9007538,
              15.1265102
            ],
            [
              76.9005901,
              15.1265102
            ]
          ],
          [
            [
              76.9008972,
              15.1265102
            ],
            [
              76.9008914,
              15.1265107
            ],
            [
              76.9008858,
              15.1265124
            ],
            [
              76.9008806,
              15.1265151
            ],
            [
              76.9008761,
              15.1265187
            ],
            [
              76.9008724,
              15.126523
            ],
            [
              76.9008696,
              15.1265281
            ],
            [
              76.9008679,
              15.1265335
            ],
            [
              76.9008674,
              15.1265391
            ],
            [
              76.9008674,
              15.128087
            ],
            [
              76.9008679,
              15.1280926
            ],
            [
              76.9008696,
              15.1280981
            ],
            [
              76.9008724,
              15.1281031
            ],
            [
              76.9008761,
              15.1281075
            ],
            [
              76.9008806,
              15.1281111
            ],
            [
              76.9008858,
              15.1281138
            ],
            [
              76.9008914,
              15.1281154
            ],
            [
              76.9008972,
              15.128116
            ],
            [
              76.9010609,
              15.128116
            ],
            [
              76.9010667,
              15.1281154
            ],
            [
              76.9010723,
              15.1281138
            ],
            [
              76.9010775,
              15.1281111
            ],
            [
              76.901082,
              15.1281075
            ],
            [
              76.9010857,
              15.1281031
            ],
            [
              76.9010885,
              15.1280981
            ],
            [
              76.9010901,
              15.1280926
            ],
            [
              76.9010907,
              15.128087
            ],
            [
              76.9010907,
              15.1265391
            ],
            [
              76.9010901,
              15.1265335
            ],
            [
              76.9010885,
              15.1265281
            ],
            [
              76.9010857,
              15.126523
            ],
            [
              76.901082,
              15.1265187
            ],
            [
              76.9010775,
              15.1265151
            ],
            [
              76.9010723,
              15.1265124
            ],
            [
              76.9010667,
              15.1265107
            ],
            [
              76.9010609,
              15.1265102
            ],
            [
              76.9008972,
              15.1265102
            ]
          ],
          [
            [
              76.9012042,
              15.1265102
            ],
            [
              76.9011985,
              15.1265107
            ],
            [
              76.9011929,
              15.1265124
            ],
            [
              76.9011877,
              15.1265151
            ],
            [
              76.9011832,
              15.1265187
            ],
            [
              76.9011795,
              15.126523
            ],
            [
              76.9011767,
              15.1265281
            ],
            [
              76.901175,
              15.1265335
            ],
            [
              76.9011745,
              15.1265391
            ],
            [
              76.9011745,
              15.128087
            ],
            [
              76.901175,
              15.1280926
            ],
            [
              76.9011767,
              15.1280981
            ],
            [
              76.9011795,
              15.1281031
            ],
            [
              76.9011832,
              15.1281075
            ],
            [
              76.9011877,
              15.1281111
            ],
            [
              76.9011929,
              15.1281138
            ],
            [
              76.9011985,
              15.1281154
            ],
            [
              76.9012042,
              15.128116
            ],
            [
              76.901368,
              15.128116
            ],
            [
              76.9013738,
              15.1281154
            ],
            [
              76.9013794,
              15.1281138
            ],
            [
              76.9013846,
              15.1281111
            ],
            [
              76.901389,
              15.1281075
            ],
            [
              76.9013928,
              15.1281031
            ],
            [
              76.9013956,
              15.1280981
            ],
            [
              76.9013972,
              15.1280926
            ],
            [
              76.9013978,
              15.128087
            ],
            [
              76.9013978,
              15.1265391
            ],
            [
              76.9013972,
              15.1265335
            ],
            [
              76.9013956,
              15.1265281
            ],
            [
              76.9013928,
              15.126523
            ],
            [
              76.901389,
              15.1265187
            ],
            [
              76.9013846,
              15.1265151
            ],
            [
              76.9013794,
              15.1265124
            ],
            [
              76.9013738,
              15.1265107
            ],
            [
              76.901368,
              15.1265102
            ],
            [
              76.9012042,
              15.1265102
            ]
          ]
        ]
      },
      "properties": {
        "handle": "ROAD_NETWORK_CONTINUOUS_0",
        "roadType": "PROP_ROAD",
        "width": "12M",
        "label": "Master Plan Road Corridor",
        "isCorridor": true,
        "layer": "PROP_ROAD"
      }
    },
    {
      "type": "Feature",
      "id": "PARK_TOP_LEFT",
      "geometry": {
        "type": "Polygon",
        "coordinates": [
          [
            [
              76.8997116,
              15.1278357
            ],
            [
              76.9004486,
              15.1278357
            ],
            [
              76.9004486,
              15.127981
            ],
            [
              76.9000758,
              15.1280533
            ],
            [
              76.8997116,
              15.1280895
            ],
            [
              76.8997116,
              15.1278357
            ]
          ]
        ]
      },
      "properties": {
        "handle": "PARK_TOP_LEFT",
        "roadType": "PARK",
        "width": "N/A",
        "label": "Park",
        "isAmenity": true,
        "amenityType": "PARK",
        "layer": "PARK"
      }
    },
    {
      "type": "Feature",
      "id": "PARK_TOP_CENTER",
      "geometry": {
        "type": "Polygon",
        "coordinates": [
          [
            [
              76.9005603,
              15.1281973
            ],
            [
              76.9013978,
              15.1281973
            ],
            [
              76.9013978,
              15.1282341
            ],
            [
              76.9009784,
              15.1282703
            ],
            [
              76.9005603,
              15.1283336
            ],
            [
              76.9005603,
              15.1281973
            ]
          ]
        ]
      },
      "properties": {
        "handle": "PARK_TOP_CENTER",
        "roadType": "PARK",
        "width": "N/A",
        "label": "Park",
        "isAmenity": true,
        "amenityType": "PARK",
        "layer": "PARK"
      }
    },
    {
      "type": "Feature",
      "id": "PARK_TOP_RIGHT",
      "geometry": {
        "type": "Polygon",
        "coordinates": [
          [
            [
              76.9014815,
              15.1275651
            ],
            [
              76.9017135,
              15.1275651
            ],
            [
              76.9017135,
              15.1281973
            ],
            [
              76.9014815,
              15.1281973
            ],
            [
              76.9014815,
              15.1275651
            ]
          ]
        ]
      },
      "properties": {
        "handle": "PARK_TOP_RIGHT",
        "roadType": "PARK",
        "width": "N/A",
        "label": "Park",
        "isAmenity": true,
        "amenityType": "PARK",
        "layer": "PARK"
      }
    },
    {
      "type": "Feature",
      "id": "CA_SITE",
      "geometry": {
        "type": "Polygon",
        "coordinates": [
          [
            [
              76.9014815,
              15.1265102
            ],
            [
              76.9017135,
              15.1265102
            ],
            [
              76.9017135,
              15.1275651
            ],
            [
              76.9014815,
              15.1275651
            ],
            [
              76.9014815,
              15.1265102
            ]
          ]
        ]
      },
      "properties": {
        "handle": "CA_SITE",
        "roadType": "CA_SITE",
        "width": "N/A",
        "label": "CA Site",
        "isAmenity": true,
        "amenityType": "CA_SITE",
        "layer": "CA_SITE"
      }
    },
    {
      "type": "Feature",
      "id": "ENTRY",
      "geometry": {
        "type": "Polygon",
        "coordinates": [
          [
            [
              76.9014815,
              15.1264013
            ],
            [
              76.9017135,
              15.1264013
            ],
            [
              76.9017135,
              15.1265102
            ],
            [
              76.9014815,
              15.1265102
            ],
            [
              76.9014815,
              15.1264013
            ]
          ]
        ]
      },
      "properties": {
        "handle": "ENTRY",
        "roadType": "ENTRY",
        "width": "N/A",
        "label": "ENTRY",
        "isAmenity": true,
        "amenityType": "ENTRY",
        "layer": "ENTRY"
      }
    }
  ]
}